{"fetched_at":"2026-07-18T06:27:40.892Z","source":"https://celestrak.org/NORAD/elements/gp.php?GROUP=globalstar&FORMAT=JSON","constellation":"globalstar","records":[{"OBJECT_NAME":"GLOBALSTAR M069","OBJECT_ID":"2007-020C","EPOCH":"2026-07-17T23:40:40.472256","CLASSIFICATION_TYPE":"U","MEAN_MOTION":12.23472307,"ECCENTRICITY":0.0001573,"INCLINATION":52.0009,"RA_OF_ASC_NODE":164.9508,"ARG_OF_PERICENTER":216.3139,"MEAN_ANOMALY":186.7482,"EPHEMERIS_TYPE":0,"NORAD_CAT_ID":31573,"ELEMENT_SET_NO":999,"REV_AT_EPOCH":88257,"BSTAR":0.0000317489,"MEAN_MOTION_DOT":-8.9e-7,"MEAN_MOTION_DDOT":0},{"OBJECT_NAME":"GLOBALSTAR M072","OBJECT_ID":"2007-020D","EPOCH":"2026-07-17T19:46:19.203168","CLASSIFICATION_TYPE":"U","MEAN_MOTION":11.91658844,"ECCENTRICITY":0.0001651,"INCLINATION":51.9949,"RA_OF_ASC_NODE":18.6823,"ARG_OF_PERICENTER":40.5139,"MEAN_ANOMALY":333.6053,"EPHEMERIS_TYPE":0,"NORAD_CAT_ID":31574,"ELEMENT_SET_NO":999,"REV_AT_EPOCH":87863,"BSTAR":0.000061389536,"MEAN_MOTION_DOT":-8e-7,"MEAN_MOTION_DDOT":0},{"OBJECT_NAME":"GLOBALSTAR M066","OBJECT_ID":"2007-048C","EPOCH":"2026-07-17T19:22:08.343264","CLASSIFICATION_TYPE":"U","MEAN_MOTION":12.30389774,"ECCENTRICITY":0.00055737,"INCLINATION":51.961,"RA_OF_ASC_NODE":330.0128,"ARG_OF_PERICENTER":106.9042,"MEAN_ANOMALY":58.445,"EPHEMERIS_TYPE":0,"NORAD_CAT_ID":32265,"ELEMENT_SET_NO":999,"REV_AT_EPOCH":86399,"BSTAR":0.00045868787,"MEAN_MOTION_DOT":-4e-7,"MEAN_MOTION_DDOT":0},{"OBJECT_NAME":"GLOBALSTAR M079","OBJECT_ID":"2010-054A","EPOCH":"2026-07-17T23:04:56.757792","CLASSIFICATION_TYPE":"U","MEAN_MOTION":12.62266439,"ECCENTRICITY":0.00011313,"INCLINATION":52.0055,"RA_OF_ASC_NODE":14.9875,"ARG_OF_PERICENTER":82.514,"MEAN_ANOMALY":82.7742,"EPHEMERIS_TYPE":0,"NORAD_CAT_ID":37188,"ELEMENT_SET_NO":999,"REV_AT_EPOCH":72643,"BSTAR":-0.000011032479,"MEAN_MOTION_DOT":-0.00000106,"MEAN_MOTION_DDOT":0},{"OBJECT_NAME":"GLOBALSTAR M074","OBJECT_ID":"2010-054B","EPOCH":"2026-07-17T21:48:49.500864","CLASSIFICATION_TYPE":"U","MEAN_MOTION":12.62262051,"ECCENTRICITY":0.00008672,"INCLINATION":52.0034,"RA_OF_ASC_NODE":14.4093,"ARG_OF_PERICENTER":96.7229,"MEAN_ANOMALY":68.1707,"EPHEMERIS_TYPE":0,"NORAD_CAT_ID":37189,"ELEMENT_SET_NO":999,"REV_AT_EPOCH":72703,"BSTAR":-0.000019609555,"MEAN_MOTION_DOT":-0.00000107,"MEAN_MOTION_DDOT":0},{"OBJECT_NAME":"GLOBALSTAR M076","OBJECT_ID":"2010-054C","EPOCH":"2026-07-17T22:26:28.086720","CLASSIFICATION_TYPE":"U","MEAN_MOTION":12.62262524,"ECCENTRICITY":0.0001103,"INCLINATION":52.0048,"RA_OF_ASC_NODE":14.5354,"ARG_OF_PERICENTER":96.1656,"MEAN_ANOMALY":67.4837,"EPHEMERIS_TYPE":0,"NORAD_CAT_ID":37190,"ELEMENT_SET_NO":999,"REV_AT_EPOCH":72675,"BSTAR":0.00008485578,"MEAN_MOTION_DOT":-8.9e-7,"MEAN_MOTION_DDOT":0},{"OBJECT_NAME":"GLOBALSTAR M077","OBJECT_ID":"2010-054D","EPOCH":"2026-07-17T22:45:24.912000","CLASSIFICATION_TYPE":"U","MEAN_MOTION":11.67547281,"ECCENTRICITY":0.0002217,"INCLINATION":51.9959,"RA_OF_ASC_NODE":101.2193,"ARG_OF_PERICENTER":230.2944,"MEAN_ANOMALY":213.6603,"EPHEMERIS_TYPE":0,"NORAD_CAT_ID":37191,"ELEMENT_SET_NO":999,"REV_AT_EPOCH":72473,"BSTAR":-0.00046558489,"MEAN_MOTION_DOT":-0.00000103,"MEAN_MOTION_DDOT":0},{"OBJECT_NAME":"GLOBALSTAR M075","OBJECT_ID":"2010-054E","EPOCH":"2026-07-17T22:26:46.757760","CLASSIFICATION_TYPE":"U","MEAN_MOTION":12.6226788,"ECCENTRICITY":0.0000779,"INCLINATION":51.9956,"RA_OF_ASC_NODE":56.5717,"ARG_OF_PERICENTER":68.7949,"MEAN_ANOMALY":36.4126,"EPHEMERIS_TYPE":0,"NORAD_CAT_ID":37192,"ELEMENT_SET_NO":999,"REV_AT_EPOCH":72582,"BSTAR":0.000051786227,"MEAN_MOTION_DOT":-9.4e-7,"MEAN_MOTION_DDOT":0},{"OBJECT_NAME":"GLOBALSTAR M073","OBJECT_ID":"2010-054F","EPOCH":"2026-07-17T18:57:59.793696","CLASSIFICATION_TYPE":"U","MEAN_MOTION":12.62266951,"ECCENTRICITY":0.00010306,"INCLINATION":52.0081,"RA_OF_ASC_NODE":331.1378,"ARG_OF_PERICENTER":100.3538,"MEAN_ANOMALY":63.9969,"EPHEMERIS_TYPE":0,"NORAD_CAT_ID":37193,"ELEMENT_SET_NO":999,"REV_AT_EPOCH":72779,"BSTAR":0.000057027191,"MEAN_MOTION_DOT":-9.4e-7,"MEAN_MOTION_DDOT":0},{"OBJECT_NAME":"GLOBALSTAR M083","OBJECT_ID":"2011-033A","EPOCH":"2026-07-17T23:06:44.380224","CLASSIFICATION_TYPE":"U","MEAN_MOTION":12.62264286,"ECCENTRICITY":0.00007207,"INCLINATION":51.986,"RA_OF_ASC_NODE":278.7998,"ARG_OF_PERICENTER":108.8964,"MEAN_ANOMALY":62.0473,"EPHEMERIS_TYPE":0,"NORAD_CAT_ID":37739,"ELEMENT_SET_NO":999,"REV_AT_EPOCH":69683,"BSTAR":0.00013750947,"MEAN_MOTION_DOT":-7.9e-7,"MEAN_MOTION_DDOT":0},{"OBJECT_NAME":"GLOBALSTAR M088","OBJECT_ID":"2011-033B","EPOCH":"2026-07-17T23:39:58.012704","CLASSIFICATION_TYPE":"U","MEAN_MOTION":12.62269485,"ECCENTRICITY":0.00000847,"INCLINATION":52.0189,"RA_OF_ASC_NODE":185.2297,"ARG_OF_PERICENTER":49.6726,"MEAN_ANOMALY":344.9111,"EPHEMERIS_TYPE":0,"NORAD_CAT_ID":37740,"ELEMENT_SET_NO":999,"REV_AT_EPOCH":69238,"BSTAR":-0.000070608965,"MEAN_MOTION_DOT":-0.00000116,"MEAN_MOTION_DDOT":0},{"OBJECT_NAME":"GLOBALSTAR M091","OBJECT_ID":"2011-033C","EPOCH":"2026-07-17T22:06:41.888160","CLASSIFICATION_TYPE":"U","MEAN_MOTION":12.62264248,"ECCENTRICITY":0.00004888,"INCLINATION":51.9983,"RA_OF_ASC_NODE":148.3465,"ARG_OF_PERICENTER":29.0765,"MEAN_ANOMALY":11.6026,"EPHEMERIS_TYPE":0,"NORAD_CAT_ID":37741,"ELEMENT_SET_NO":999,"REV_AT_EPOCH":69316,"BSTAR":6.15365e-7,"MEAN_MOTION_DOT":-0.00000104,"MEAN_MOTION_DDOT":0},{"OBJECT_NAME":"GLOBALSTAR M085","OBJECT_ID":"2011-033D","EPOCH":"2026-07-17T22:00:22.938624","CLASSIFICATION_TYPE":"U","MEAN_MOTION":12.62264382,"ECCENTRICITY":0.00008344,"INCLINATION":52.0126,"RA_OF_ASC_NODE":99.6792,"ARG_OF_PERICENTER":45.5716,"MEAN_ANOMALY":35.1749,"EPHEMERIS_TYPE":0,"NORAD_CAT_ID":37742,"ELEMENT_SET_NO":999,"REV_AT_EPOCH":69367,"BSTAR":0.0001050741,"MEAN_MOTION_DOT":-8.5e-7,"MEAN_MOTION_DDOT":0},{"OBJECT_NAME":"GLOBALSTAR M081","OBJECT_ID":"2011-033E","EPOCH":"2026-07-17T22:38:29.277888","CLASSIFICATION_TYPE":"U","MEAN_MOTION":12.62265296,"ECCENTRICITY":0.00007221,"INCLINATION":51.9957,"RA_OF_ASC_NODE":101.9996,"ARG_OF_PERICENTER":58.2873,"MEAN_ANOMALY":22.63,"EPHEMERIS_TYPE":0,"NORAD_CAT_ID":37743,"ELEMENT_SET_NO":999,"REV_AT_EPOCH":69382,"BSTAR":0.000070724587,"MEAN_MOTION_DOT":-9.1e-7,"MEAN_MOTION_DDOT":0},{"OBJECT_NAME":"GLOBALSTAR M089","OBJECT_ID":"2011-033F","EPOCH":"2026-07-17T21:48:07.208064","CLASSIFICATION_TYPE":"U","MEAN_MOTION":12.622676,"ECCENTRICITY":0.00007098,"INCLINATION":51.9939,"RA_OF_ASC_NODE":56.259,"ARG_OF_PERICENTER":91.3868,"MEAN_ANOMALY":11.6355,"EPHEMERIS_TYPE":0,"NORAD_CAT_ID":37744,"ELEMENT_SET_NO":999,"REV_AT_EPOCH":69466,"BSTAR":0.000044727561,"MEAN_MOTION_DOT":-9.6e-7,"MEAN_MOTION_DDOT":0},{"OBJECT_NAME":"GLOBALSTAR M084","OBJECT_ID":"2011-080A","EPOCH":"2026-07-17T16:44:37.459392","CLASSIFICATION_TYPE":"U","MEAN_MOTION":12.622636,"ECCENTRICITY":0.00007737,"INCLINATION":52.0016,"RA_OF_ASC_NODE":284.3999,"ARG_OF_PERICENTER":133.2621,"MEAN_ANOMALY":31.338,"EPHEMERIS_TYPE":0,"NORAD_CAT_ID":38040,"ELEMENT_SET_NO":999,"REV_AT_EPOCH":67261,"BSTAR":0.00013765029,"MEAN_MOTION_DOT":-7.9e-7,"MEAN_MOTION_DDOT":0}]}
